#dP2024  9 30  6  0  0.00000000      96 __u+U IGS20 EXT  IAC
## 2334 108000.00000000   900.00000000 60583 0.2500000000000
+   54   G01G02G03G04G05G06G07G08G09G10G11G12G13G14G15G16G17
+        G18G19G20G21G22G23G24G25G26G27G28G29G30G31G32R01R02
+        R03R04R05R07R08R09R11R12R14R15R16R17R18R19R20R21R22
+        R24R25R26  0  0  0  0  0  0  0  0  0  0  0  0  0  0
+          0  0  0  0  0  0  0  0  0  0  0  0  0  0  0  0  0
++        12  8  8  8  8  8  8  9  8  8  8  8  8  8  8  9  8
++         8  8  8 10  8  8  8  9  8  8  8  9  8  8  8  9 10
++         8  8  8  9  8  9  9  8  8  9  9  8  9 10  9  9  9
++         8  9  9  0  0  0  0  0  0  0  0  0  0  0  0  0  0
++         0  0  0  0  0  0  0  0  0  0  0  0  0  0  0  0  0
%c M  cc GPS ccc cccc cccc cccc cccc ccccc ccccc ccccc ccccc
%c cc cc ccc ccc cccc cccc cccc cccc ccccc ccccc ccccc ccccc
%f  0.0000000  0.000000000  0.00000000000  0.000000000000000
%f  0.0000000  0.000000000  0.00000000000  0.000000000000000
%i    0    0    0    0      0      0      0      0         0
%i    0    0    0    0      0      0      0      0         0
/* IAC                                ULTRA-RAPID PREDICTION
/* S/V CLOCKS ARE ALIGNED TO GNSS TIME                      
/* G:C1WC2W R:C1PC2P E:C1XC5X C:C2IC6I J:C1CC2S             
/* PCV:IGS20_2317 OL/AL:FES2004  NONE     YN ORB:CoN CLK:CoN
*  2024 09 30 15  0  0.00000000
PG01 -22407.195454  -8832.869000 -11934.677834    183.938308
PG02 -14457.963642  21429.629648   5725.023683   -347.100059
PG03 -13738.962229  12546.321579 -19077.409566    555.275143
PG04  -5036.270047  18114.769661 -18688.545350    453.264464
PG05  25296.726986  -5326.323021   6064.476746   -188.289339
PG06  10992.207162   9789.761841 -22033.535062     -5.242471
PG07  -3307.450115  23310.854101  12356.272457    -32.176701
PG08 -13423.916706   7527.191155  21537.648740    369.680806
PG09   4681.770117  23404.852292 -11677.443778    378.611019
PG10 -18696.338059 -10660.581557  16000.893416   -142.477050
PG11  18412.738091  -5185.671704 -18365.731821   -739.887555
PG12  17735.218089 -10608.304176 -16938.337405   -541.826558
PG13  16112.784129   2014.116953  20837.250462    679.175700
PG14  14981.073803  13150.238850  17706.072561    507.203629
PG15  12100.221301  -9681.335713  21051.783672    210.299869
PG16 -26675.229900   -829.918617   2152.440680   -167.198936
PG17  13696.931472  22325.384779  -3347.611887    610.793457
PG18   3537.230364 -22822.659124  12937.305892   -656.039986
PG19  16741.719233  17122.214445 -12088.324427    544.686471
PG20  25905.230849   -817.939964  -5355.172651    370.125341
PG21 -16436.229117  17147.937410  11089.430762    100.728179
PG22  20983.084682  10642.588315  12430.428414    -66.816029
PG23  -5198.037796 -14423.294256  21744.065902    331.554451
PG24  14648.158355 -20789.429354   6435.817504   -485.970019
PG25   4340.484586 -15449.261343 -21475.570824    499.613313
PG26 -24296.204917  -5413.512815  -9948.967389     66.976683
PG27 -17976.779317  -4484.232130  18892.890176    -34.204320
PG28 -10376.260727 -12047.211229 -21288.939786   -429.755297
PG29   -813.893745 -22910.860273 -13346.578026   -574.474666
PG30   5490.747289  18068.301159  18724.128621   -311.444380
PG31 -17269.739287    455.680056 -20502.002711   -224.028980
PG32 -16004.592407 -20769.403697  -4659.545492   -591.915611
PR01  -6769.958266   8580.561880 -23053.574772     99.489461
PR02   8380.358338  17174.350485 -16818.212723    -24.919095
PR03  19460.089350  16412.837433   -868.795621    108.547757
PR04  19335.043400   7070.391798  15068.884081    257.125373
PR05   9091.584148  -6231.988054  23005.286703    138.435181
PR07 -19628.550582 -16333.585112    440.334204     91.964401
PR08 -19394.365599  -6745.008788 -15108.748174     -6.416671
PR09   3841.704655 -13169.451399 -21502.112789    212.039464
PR11 -23150.472737   4056.187535  -9878.297105     10.477675
PR12 -19943.471163  12665.638977   9659.734779     45.456717
PR14  13545.931357   5553.267170  20908.120050     26.993933
PR15  23647.059510  -4846.124160   8279.827110     75.342506
PR16  20069.258597 -12617.017582  -9454.743145     29.574531
PR17   6498.650097  15139.897126 -19480.706243    126.595481
PR18  10929.979369  -2029.459066 -22942.090941    164.613824
PR19  10916.126151 -16437.230282 -16152.238441   -293.204772
PR20   3513.979266 -24942.205974   4134.926019   -119.814285
PR21  -5999.174589 -15783.901682  19108.200068   -138.845443
PR22 -11541.043779   2962.404963  22582.958407     33.821296
PR24  -2017.682296  25028.273834  -4553.982918    -74.127655
PR25  -6378.560285 -15018.652513  19604.844269    -96.230964
PR26 -19914.971958  -7738.405038 -13907.061666     51.312776
*  2024 09 30 15 15  0.00000000
PG01 -20980.163579  -9046.816523 -14195.005757    183.929280
PG02 -14377.870183  20633.747638   8457.597538   -347.092769
PG03 -15797.028019  12496.680572 -17421.507777    555.286481
PG04  -6241.434068  16247.055161 -20007.642417    453.270716
PG05  25864.162060  -5158.554706   3254.160011   -188.290434
PG06   9744.831572  11958.182450 -21537.087796     -5.266615
PG07  -4115.252460  24261.160874   9899.709486    -32.173315
PG08 -14797.499822   5467.017256  21297.937296    369.691832
PG09   3705.775594  22302.233604 -13982.520415    378.625683
PG10 -16815.965985 -10811.238398  17871.472340   -142.488631
PG11  17393.062216  -3246.186557 -19755.935788   -739.890750
PG12  19509.752844 -10374.234399 -14983.353612   -541.828957
PG13  16993.196178   4209.386487  19816.828578    679.177408
PG14  12884.299264  13313.157561  19157.369296    507.211283
PG15  13730.325848  -7763.954381  20864.706062    210.303858
PG16 -26782.977077  -1057.482429   -675.972852   -167.189840
PG17  13599.554309  22679.933981   -480.285645    610.782494
PG18   4364.845426 -23897.731618  10489.644006   -656.041558
PG19  17108.431750  18286.718176  -9619.802859    544.690796
PG20  25198.767969   -391.001130  -8067.967686    370.125018
PG21 -16144.919388  15765.415247  13496.499570    100.727491
PG22  19471.657871  10765.238673  14682.692954    -66.819215
PG23  -2710.068015 -14584.209499  22067.501140    331.561915
PG24  14601.807730 -19775.226484   9065.164527   -485.969278
PG25   6696.794890 -15494.556356 -20792.903441    499.613271
PG26 -23088.949427  -5817.265421 -12315.507495     66.968609
PG27 -19000.547905  -6338.991754  17357.797166    -34.204657
PG28  -9252.470600 -14154.901559 -20494.358739   -429.767330
PG29    105.981928 -21532.391572 -15509.388684   -574.472415
PG30   4362.221892  19782.964046  17189.932492   -311.437806
PG31 -16170.464905  -1609.161121 -21300.114907   -224.028503
PG32 -16017.921172 -21227.145550  -1844.043005   -591.911972
PR01  -9074.177534   6939.837209 -22812.165683     99.490699
PR02   6699.577036  15730.959030 -18861.256999    -24.919160
PR03  19308.653094  16099.073833  -4074.037818    108.548532
PR04  20762.279872   8001.148652  12476.280626    257.126990
PR05  11316.893091  -4526.677451  22406.748754    138.435768
PR07 -19533.390789 -16050.747527   3643.528574     91.965221
PR08 -20835.526288  -7682.310437 -12535.776176     -6.416584
PR09   6165.352807 -14279.825641 -20222.699639    212.041446
PR11 -21819.986290   3620.309022 -12677.720568     10.476837
PR12 -20817.500918  13173.861680   6664.340156     45.457206
PR14  11104.490205   6568.805662  22022.159366     26.994104
PR15  22498.486989  -4488.292742  11180.519782     75.342261
PR16  20913.610633 -13139.031849  -6439.227970     29.574938
PR17   6305.592222  17422.057587 -17546.164790    126.598512
PR18  10492.327313    793.148783 -23217.475193    164.615617
PR19  10393.651079 -14364.768938 -18327.176656   -293.205809
PR20   3352.537812 -25286.807248    910.514971   -119.814625
PR21  -5801.153066 -18014.889348  17085.961732   -138.848195
PR22 -11045.029322    199.870300  23021.034949     33.812365
PR24  -1915.808410  25413.194544  -1368.405587    -74.128961
PR25  -6066.661809 -17301.867471  17729.126639    -96.227900
PR26 -21236.705989  -8565.527188 -11206.132543     51.332976
EOF
